NORAD_CAT_ID,OBJECT_NAME,OBJECT_TYPE,EPOCH,MEAN_MOTION,ECCENTRICITY,INCLINATION,RA_OF_ASC_NODE,ARG_OF_PERICENTER,MEAN_ANOMALY,BSTAR,MEAN_MOTION_DOT,MEAN_MOTION_DDOT,TLE_LINE0,TLE_LINE1,TLE_LINE2,SEMIMAJOR_AXIS,PERIOD,APOGEE,PERIGEE,DECAYED
54178.0,STARLINK-5164,PAYLOAD,2024-04-19 12:57:01,15.08834847,0.000157,53.2173,217.5085,119.9143,240.2006,0.000597,9.225e-05,0.0,0 STARLINK-5164,1 54178U 22141X   24110.53959776  .00009225  00000-0  59700-3 0  9996,2 54178  53.2173 217.5085 0001570 119.9143 240.2006 15.08834847 81828,6917.896,95.438,540.847,538.675,0.0
54178.0,STARLINK-5164,PAYLOAD,2024-04-19 14:32:24,15.08837471,0.0001392,53.2174,217.2119,103.3921,256.7226,0.00061437,9.503e-05,0.0,0 STARLINK-5164,1 54178U 22141X   24110.60583755  .00009503  00000-0  61437-3 0  9993,2 54178  53.2174 217.2119 0001392 103.3921 256.7226 15.08837471 81830,6917.888,95.438,540.716,538.79,0.0
54178.0,STARLINK-5164,PAYLOAD,2024-04-19 16:07:47,15.08841182,0.0001458,53.2173,216.9137,115.3601,244.7542,0.00063454,9.825e-05,0.0,0 STARLINK-5164,1 54178U 22141X   24110.67207477  .00009825  00000-0  63454-3 0  9992,2 54178  53.2173 216.9137 0001458 115.3601 244.7542 15.08841182 81849,6917.877,95.437,540.75,538.733,0.0
54178.0,STARLINK-5164,PAYLOAD,2024-04-20 12:47:48,15.08823241,0.00014,53.2172,213.0476,82.3566,277.7585,-0.00044038,-7.286e-05,0.0,0 STARLINK-5164,1 54178U 22141X   24111.53320027 -.00007286  00000-0 -44038-3 0  9993,2 54178  53.2172 213.0476 0001400  82.3566 277.7585 15.08823241 81975,6917.932,95.439,540.765,538.828,0.0
54178.0,STARLINK-5164,PAYLOAD,2024-04-20 14:23:11,15.08819895,0.000147,53.2174,212.753,100.6011,259.5147,-0.0004871,-8.027e-05,0.0,0 STARLINK-5164,1 54178U 22141X   24111.59944145 -.00008027  00000-0 -48710-3 0  9997,2 54178  53.2174 212.7530 0001470 100.6011 259.5147 15.08819895 81983,6917.942,95.439,540.824,538.79,0.0
54178.0,STARLINK-5164,PAYLOAD,2024-04-21 12:38:37,15.08821299,0.0001861,53.216,208.5943,92.2027,267.9178,-0.0004715,-7.78e-05,0.0,0 STARLINK-5164,1 54178U 22141X   24112.52681735 -.00007780  00000-0 -47150-3 0  9996,2 54178  53.2160 208.5943 0001861  92.2027 267.9178 15.08821299 82121,6917.938,95.439,541.09,538.515,0.0
54178.0,STARLINK-5164,PAYLOAD,2024-04-22 10:54:00,15.08837355,0.0001929,53.217,204.4344,89.9904,270.1309,0.00063868,9.89e-05,0.0,0 STARLINK-5164,1 54178U 22141X   24113.45416783  .00009890  00000-0  63868-3 0  9994,2 54178  53.2170 204.4344 0001929  89.9904 270.1309 15.08837355 82261,6917.888,95.438,541.088,538.419,0.0
54178.0,STARLINK-5164,PAYLOAD,2024-04-22 15:40:08,15.08863412,0.0001608,53.2167,203.5286,124.217,235.8975,0.00094199,0.00014745,0.0,0 STARLINK-5164,1 54178U 22141X   24113.65287237  .00014745  00000-0  94199-3 0  9992,2 54178  53.2167 203.5286 0001608 124.2170 235.8975 15.08863412 82297,6917.809,95.436,540.786,538.561,0.0
54178.0,STARLINK-5164,PAYLOAD,2024-04-23 12:20:09,15.08849117,0.0001558,53.2174,199.6689,104.4833,255.6332,0.00024904,3.679e-05,0.0,0 STARLINK-5164,1 54178U 22141X   24114.51399834  .00003679  00000-0  24904-3 0  9996,2 54178  53.2174 199.6689 0001558 104.4833 255.6332 15.08849117 82425,6917.853,95.437,540.795,538.64,0.0
54178.0,STARLINK-5164,PAYLOAD,2024-04-24 12:10:56,15.08839908,0.000131,53.2165,195.2011,106.9831,253.1305,-0.00035388,-5.915e-05,0.0,0 STARLINK-5164,1 54178U 22141X   24115.50759960 -.00005915  00000-0 -35388-3 0  9991,2 54178  53.2165 195.2011 0001310 106.9831 253.1305 15.08839908 82573,6917.881,95.438,540.652,538.839,0.0
54178.0,STARLINK-5164,PAYLOAD,2024-04-25 10:26:21,15.08839442,0.0001221,53.2162,191.0394,79.3065,280.8064,-1.6264e-05,-5.47e-06,0.0,0 STARLINK-5164,1 54178U 22141X   24116.43496570 -.00000547  00000-0 -16264-4 0  9998,2 54178  53.2162 191.0394 0001221  79.3065 280.8064 15.08839442 82719,6917.882,95.438,540.592,538.902,0.0
54178.0,STARLINK-5164,PAYLOAD,2024-04-26 11:52:31,15.08840484,0.0001275,53.217,186.2897,98.3585,261.7552,0.00024472,3.609e-05,0.0,0 STARLINK-5164,1 54178U 22141X   24117.49480909  .00003609  00000-0  24472-3 0  9993,2 54178  53.2170 186.2897 0001275  98.3585 261.7552 15.08840484 82874,6917.879,95.438,540.626,538.862,0.0
54178.0,STARLINK-5164,PAYLOAD,2024-04-26 15:03:17,15.08845009,0.0001267,53.2149,185.6907,69.3708,290.742,0.00047534,7.286e-05,0.0,0 STARLINK-5164,1 54178U 22141X   24117.62728787  .00007286  00000-0  47534-3 0  9996,2 54178  53.2149 185.6907 0001267  69.3708 290.7420 15.08845009 82897,6917.865,95.437,540.607,538.854,0.0
54178.0,STARLINK-5164,PAYLOAD,2024-04-27 11:43:19,15.08834786,0.0001619,53.2165,181.8241,82.8744,277.2433,-5.3492e-06,-3.73e-06,0.0,0 STARLINK-5164,1 54178U 22141X   24118.48841597 -.00000373  00000-0 -53492-5 0  9990,2 54178  53.2165 181.8241 0001619  82.8744 277.2433 15.08834786 83025,6917.896,95.438,540.881,538.641,0.0
54178.0,STARLINK-5164,PAYLOAD,2024-04-27 13:18:41,15.08844117,0.00013,53.2141,181.528,105.5876,254.526,0.00018642,2.681e-05,0.0,0 STARLINK-5164,1 54178U 22141X   24118.55465073  .00002681  00000-0  18642-3 0  9997,2 54178  53.2141 181.5280 0001300 105.5876 254.5260 15.08844117 83031,6917.868,95.437,540.632,538.833,0.0
54178.0,STARLINK-5164,PAYLOAD,2024-04-27 21:15:37,15.08839443,0.000147,53.2152,180.0426,79.0726,281.0432,0.00011947,1.614e-05,0.0,0 STARLINK-5164,1 54178U 22141X   24118.88585534  .00001614  00000-0  11947-3 0  9994,2 54178  53.2152 180.0426 0001470  79.0726 281.0432 15.08839443 83083,6917.882,95.438,540.764,538.73,0.0
54178.0,STARLINK-5164,PAYLOAD,2024-04-28 03:37:10,15.0883477,0.0001931,53.215,178.855,86.2206,273.9007,4.5073e-05,4.29e-06,0.0,0 STARLINK-5164,1 54178U 22141X   24119.15081954  .00000429  00000-0  45073-4 0  9993,2 54178  53.2150 178.8550 0001931  86.2206 273.9007 15.08834770 83120,6917.896,95.438,541.097,538.426,0.0
54178.0,STARLINK-5164,PAYLOAD,2024-04-28 09:58:43,15.08831042,0.0001378,53.2134,177.6625,90.0712,270.0438,-1.5915e-05,-5.41e-06,0.0,0 STARLINK-5164,1 54178U 22141X   24119.41578161 -.00000541  00000-0 -15915-4 0  9992,2 54178  53.2134 177.6625 0001378  90.0712 270.0438 15.08831042 83161,6917.908,95.438,540.726,538.819,0.0
54178.0,STARLINK-5164,PAYLOAD,2024-04-29 09:49:30,15.08844927,0.0001467,53.215,173.2039,89.0814,271.0347,0.00033753,5.089e-05,0.0,0 STARLINK-5164,1 54178U 22141X   24120.40938101  .00005089  00000-0  33753-3 0  9996,2 54178  53.2150 173.2039 0001467  89.0814 271.0347 15.08844927 83313,6917.865,95.437,540.745,538.715,0.0
54178.0,STARLINK-5164,PAYLOAD,2024-04-29 20:57:12,15.0884584,0.0001295,53.2134,171.1213,89.1104,271.0036,0.00026587,3.947e-05,0.0,0 STARLINK-5164,1 54178U 22141X   24120.87306015  .00003947  00000-0  26587-3 0  9998,2 54178  53.2134 171.1213 0001295  89.1104 271.0036 15.08845840 83385,6917.863,95.437,540.623,538.832,0.0
54178.0,STARLINK-5164,PAYLOAD,2024-04-30 09:40:17,15.08846123,0.0001466,53.215,168.7431,82.7508,277.3651,0.00025543,3.78e-05,0.0,0 STARLINK-5164,1 54178U 22141X   24121.40298062  .00003780  00000-0  25543-3 0  9996,2 54178  53.2150 168.7431 0001466  82.7508 277.3651 15.08846123 83460,6917.862,95.437,540.741,538.713,0.0
54178.0,STARLINK-5164,PAYLOAD,2024-05-01 09:31:04,15.08851359,0.0001569,53.2156,164.2822,89.2506,270.8665,5.8976e-05,6.51e-06,0.0,0 STARLINK-5164,1 54178U 22141X   24122.39657521  .00000651  00000-0  58976-4 0  9995,2 54178  53.2156 164.2822 0001569  89.2506 270.8665 15.08851359 83612,6917.846,95.437,540.796,538.625,0.0
54178.0,STARLINK-5164,PAYLOAD,2024-05-02 03:00:18,15.0884417,0.0001484,53.2148,161.0109,82.5172,277.5988,0.00010028,1.309e-05,0.0,0 STARLINK-5164,1 54178U 22141X   24123.12521694  .00001309  00000-0  10028-3 0  9994,2 54178  53.2148 161.0109 0001484  82.5172 277.5988 15.08844170 83724,6917.868,95.437,540.759,538.706,0.0
54178.0,STARLINK-5164,PAYLOAD,2024-05-02 09:21:51,15.08844463,0.0001478,53.2153,159.8218,82.1654,277.9506,8.872e-05,1.124e-05,0.0,0 STARLINK-5164,1 54178U 22141X   24123.39017580  .00001124  00000-0  88720-4 0  9997,2 54178  53.2153 159.8218 0001478  82.1654 277.9506 15.08844463 83769,6917.867,95.437,540.754,538.709,0.0
54178.0,STARLINK-5164,PAYLOAD,2024-05-03 09:12:37,15.08847601,0.0001365,53.2155,155.3612,82.3559,277.7588,0.00012164,1.649e-05,0.0,0 STARLINK-5164,1 54178U 22141X   24124.38377112  .00001649  00000-0  12164-3 0  9997,2 54178  53.2155 155.3612 0001365  82.3559 277.7588 15.08847601 83913,6917.857,95.437,540.666,538.778,0.0
54178.0,STARLINK-5164,PAYLOAD,2024-05-03 18:44:57,15.08837484,0.0001329,53.2143,153.5775,87.5081,272.6063,4.4506e-05,4.2e-06,0.0,0 STARLINK-5164,1 54178U 22141X   24124.78121864  .00000420  00000-0  44506-4 0  9994,2 54178  53.2143 153.5775 0001329  87.5081 272.6063 15.08837484 83973,6917.888,95.438,540.672,538.834,0.0
54178.0,STARLINK-5164,PAYLOAD,2024-05-04 02:41:53,15.08829458,0.0001463,53.2164,152.091,93.2157,266.9002,-4.3658e-05,-9.82e-06,0.0,0 STARLINK-5164,1 54178U 22141X   24125.11242708 -.00000982  00000-0 -43658-4 0  9995,2 54178  53.2164 152.0910 0001463  93.2157 266.9002 15.08829458 84026,6917.913,95.438,540.79,538.766,0.0
54178.0,STARLINK-5164,PAYLOAD,2024-05-05 12:04:59,15.08837412,0.0001344,53.2154,145.8458,97.4985,262.616,-1.1037e-05,-4.64e-06,0.0,0 STARLINK-5164,1 54178U 22141X   24126.50346770 -.00000464  00000-0 -11037-4 0  9994,2 54178  53.2154 145.8458 0001344  97.4985 262.6160 15.08837412 84235,6917.888,95.438,540.683,538.824,0.0
54178.0,STARLINK-5164,PAYLOAD,2024-05-05 13:40:22,15.08838074,0.0001342,53.2154,145.5484,97.4449,262.6695,-6.0232e-06,-3.84e-06,0.0,0 STARLINK-5164,1 54178U 22141X   24126.56970725 -.00000384  00000-0 -60232-5 0  9996,2 54178  53.2154 145.5484 0001342  97.4449 262.6695 15.08838074 84243,6917.886,95.438,540.68,538.823,0.0
54178.0,STARLINK-5164,PAYLOAD,2024-05-05 18:26:32,15.08835085,0.0001351,53.2159,144.6559,96.9078,263.2068,5.2014e-05,5.4e-06,0.0,0 STARLINK-5164,1 54178U 22141X   24126.76842817  .00000540  00000-0  52014-4 0  9998,2 54178  53.2159 144.6559 0001351  96.9078 263.2068 15.08835085 84276,6917.895,95.438,540.695,538.826,0.0
